[{"OBJECT_NAME":"STARLINK-1799","OBJECT_ID":"2020-073AF","EPOCH":"2026-03-10T00:00:02.999808","MEAN_MOTION":15.76402839,"ECCENTRICITY":0.0005505,"INCLINATION":53.0426,"RA_OF_ASC_NODE":193.868,"ARG_OF_PERICENTER":242.728,"MEAN_ANOMALY":274.3296,"EPHEMERIS_TYPE":0,"CLASSIFICATION_TYPE":"U","NORAD_CAT_ID":46699,"ELEMENT_SET_NO":999,"REV_AT_EPOCH":586,"BSTAR":0.00068876856,"MEAN_MOTION_DOT":0.00112035,"MEAN_MOTION_DDOT":0},{"OBJECT_NAME":"STARLINK-36266","OBJECT_ID":"2026-038Z","EPOCH":"2026-03-09T22:00:01.999584","MEAN_MOTION":15.90124308,"ECCENTRICITY":0.00012289,"INCLINATION":97.2677,"RA_OF_ASC_NODE":79.2474,"ARG_OF_PERICENTER":82.0764,"MEAN_ANOMALY":271.4174,"EPHEMERIS_TYPE":0,"CLASSIFICATION_TYPE":"U","NORAD_CAT_ID":67984,"ELEMENT_SET_NO":999,"REV_AT_EPOCH":320,"BSTAR":-0.0056681052,"MEAN_MOTION_DOT":-0.01683306,"MEAN_MOTION_DDOT":0.00077537614}]
